[{"OBJECT_NAME":"XINGYUN-2 01","OBJECT_ID":"2020-028A","EPOCH":"2026-03-09T23:27:57.512736","MEAN_MOTION":15.11323975,"ECCENTRICITY":0.00090563,"INCLINATION":97.4853,"RA_OF_ASC_NODE":63.3977,"ARG_OF_PERICENTER":174.572,"MEAN_ANOMALY":185.561,"EPHEMERIS_TYPE":0,"CLASSIFICATION_TYPE":"U","NORAD_CAT_ID":45602,"ELEMENT_SET_NO":999,"REV_AT_EPOCH":31985,"BSTAR":0.000253969,"MEAN_MOTION_DOT":4.22e-5,"MEAN_MOTION_DDOT":0},{"OBJECT_NAME":"STARLINK-5172","OBJECT_ID":"2022-136P","EPOCH":"2026-03-09T21:31:29.648352","MEAN_MOTION":15.08840913,"ECCENTRICITY":0.00013338,"INCLINATION":53.2183,"RA_OF_ASC_NODE":298.3734,"ARG_OF_PERICENTER":85.9919,"MEAN_ANOMALY":274.1226,"EPHEMERIS_TYPE":0,"CLASSIFICATION_TYPE":"U","NORAD_CAT_ID":54064,"ELEMENT_SET_NO":999,"REV_AT_EPOCH":18750,"BSTAR":4.9761981e-5,"MEAN_MOTION_DOT":5.04e-6,"MEAN_MOTION_DDOT":0}]
